IRIDIUM 119             
1 42959U 17061E   24090.02119274 -.00000459  00000+0 -17087-3 0  9990
2 42959  86.4027   3.3984 0002146  88.1259 272.0182 14.34214024338833
IRIDIUM 107             
1 42960U 17061F   24089.48207463  .00000619  00000+0  21394-3 0  9990
2 42960  86.4032   3.6399 0002489  86.1136 274.0344 14.34209433338768
IRIDIUM 132             
1 42961U 17061G   24089.69771708  .00000673  00000+0  23318-3 0  9990
2 42961  86.4031   3.5352 0002442  86.0526 274.0949 14.34218496338790
IRIDIUM 136             
1 42962U 17061H   24090.21780677  .00000449  00000+0  15323-3 0  9994
2 42962  86.4032   3.3210 0002208  92.9701 267.1748 14.34215060338888
IRIDIUM 139             
1 42963U 17061J   24090.15438240  .00000110  00000+0  32228-4 0  9993
2 42963  86.4036   3.3960 0002496  84.9784 275.1696 14.34211602338885
IRIDIUM 125             
1 42964U 17061K   24090.21146726  .00000587  00000+0  20269-3 0  9995
2 42964  86.4033   3.4186 0002388  91.9769 268.1700 14.34217780338909
IRIDIUM 135             
1 43070U 17083A   24089.34835478  .00000495  00000+0  16964-3 0  9994
2 43070  86.3935 300.4756 0002046  76.8326 283.3098 14.34213397328079
IRIDIUM 138             
1 43071U 17083B   24089.86211018  .00000517  00000+0  17745-3 0  9993
2 43071  86.3917 299.9875 0002327  93.8405 266.3057 14.34211623328136
